25851,GLOBALSTAR M035,1999,130.37,-1.0,-,51.99,Inactive,0,MEO,USA,Globalstar,Unknown,Unknown,Unknown,1 25851U 99037A   25108.49128376  .00000005  00000+0  26041-2 0  9994,2 25851  51.9932 188.0942 0013957 242.9182 209.5322 11.04537761 89675,11.04537761,0.0013957,MEO
25852,GLOBALSTAR M032,1999,128.68,-1.0,-,52.0,Inactive,0,MEO,USA,Globalstar,Unknown,Unknown,Unknown,1 25852U 99037B   25107.94932862 -.00000097  00000+0 -97208-3 0  9994,2 25852  52.0000  18.6524 0012535  66.1130 294.0982 11.19062846128047,11.19062846,0.0012535,MEO
25853,GLOBALSTAR M051,1999,126.07,-1.0,-,51.98,Inactive,0,LEO,USA,Globalstar,Unknown,Unknown,Unknown,1 25853U 99037C   25107.58345380 -.00000073  00000+0 -32194-4 0  9996,2 25853  51.9779 187.0922 0001123 127.0797 233.0116 11.42204867125483,11.42204867,0.0001123,LEO
25854,GLOBALSTAR M030,1999,124.66,-1.0,-,51.99,Inactive,0,LEO,USA,Globalstar,Unknown,Unknown,Unknown,1 25854U 99037D   25107.85599850 -.00000024  00000+0  10760-2 0  9998,2 25854  51.9919 356.3770 0003173 310.7122  49.3419 11.55104820143073,11.5510482,0.0003173,LEO
25872,GLOBALSTAR M048,1999,127.0,-1.0,-,51.93,Inactive,0,LEO,USA,Globalstar,Unknown,Unknown,Unknown,1 25872U 99041A   25107.30137353 -.00000078  00000+0 -21549-3 0  9997,2 25872  51.9334 120.4507 0013071  79.8312  37.5667 11.33856244118070,11.33856244,0.0013071,LEO
25873,GLOBALSTAR M026,1999,130.1,-1.0,-,52.0,Inactive,0,MEO,USA,Globalstar,Unknown,Unknown,Unknown,1 25873U 99041B   25107.82999470  .00000075  00000+0  51405-2 0  9999,2 25873  52.0027 308.1662 0002126 143.3166 310.6162 11.06836490141805,11.0683649,0.0002126,MEO
25874,GLOBALSTAR M043,1999,127.92,-1.0,-,51.94,Inactive,0,LEO,USA,Globalstar,Unknown,Unknown,Unknown,1 25874U 99041C   25107.82394446 -.00000087  00000+0 -54635-3 0  9996,2 25874  51.9393 224.4507 0013807 206.9910 326.5217 11.25692013116079,11.25692013,0.0013807,LEO
25875,GLOBALSTAR M028,1999,115.15,-1.0,-,51.97,Inactive,0,LEO,USA,Globalstar,Unknown,Unknown,Unknown,1 25875U 99041D   25107.89003414 -.00000056  00000+0  28365-3 0  9992,2 25875  51.9658  12.8600 0062864 301.0627  58.4074 12.50581146182636,12.50581146,0.0062864,LEO
